[{"OBJECT_NAME":"SPOT 7","OBJECT_ID":"2014-034A","EPOCH":"2026-03-09T22:30:32.970240","MEAN_MOTION":14.60861606,"ECCENTRICITY":0.00013975,"INCLINATION":98.074,"RA_OF_ASC_NODE":133.9442,"ARG_OF_PERICENTER":99.9915,"MEAN_ANOMALY":260.1443,"EPHEMERIS_TYPE":0,"CLASSIFICATION_TYPE":"U","NORAD_CAT_ID":40053,"ELEMENT_SET_NO":999,"REV_AT_EPOCH":62264,"BSTAR":0.00013040452,"MEAN_MOTION_DOT":5.92e-6,"MEAN_MOTION_DDOT":0},{"OBJECT_NAME":"UWE-2","OBJECT_ID":"2009-051D","EPOCH":"2026-03-09T16:17:46.667904","MEAN_MOTION":14.60028495,"ECCENTRICITY":0.00057562,"INCLINATION":98.4113,"RA_OF_ASC_NODE":330.7885,"ARG_OF_PERICENTER":180.7835,"MEAN_ANOMALY":179.3357,"EPHEMERIS_TYPE":0,"CLASSIFICATION_TYPE":"U","NORAD_CAT_ID":35934,"ELEMENT_SET_NO":999,"REV_AT_EPOCH":87433,"BSTAR":0.00022816008,"MEAN_MOTION_DOT":1.047e-5,"MEAN_MOTION_DDOT":0}]
